NORAD_CAT_ID,OBJECT_NAME,OBJECT_TYPE,EPOCH,MEAN_MOTION,ECCENTRICITY,INCLINATION,RA_OF_ASC_NODE,ARG_OF_PERICENTER,MEAN_ANOMALY,BSTAR,MEAN_MOTION_DOT,MEAN_MOTION_DDOT,TLE_LINE0,TLE_LINE1,TLE_LINE2,SEMIMAJOR_AXIS,PERIOD,APOGEE,PERIGEE,DECAYED
54167.0,STARLINK-5243,PAYLOAD,2023-01-15 13:49:22,15.08842891,0.0001259,53.2175,132.4479,60.74100000000001,299.3708,9.1859e-06,-1.42e-06,0.0,0 STARLINK-5243,1 54167U 22141L   23015.57595031 -.00000142  00000-0  91859-5 0  9994,2 54167  53.2175 132.4479 0001259  60.7410 299.3708 15.08842891 12235,6917.871999999999,95.437,540.6080000000001,538.866,0.0
54167.0,STARLINK-5243,PAYLOAD,2023-01-16 13:40:07,15.08853439,0.0001094999999999,53.2169,127.9872,94.6673,265.4444,0.00017638,2.521e-05,0.0,0 STARLINK-5243,1 54167U 22141L   23016.56953636  .00002521  00000-0  17638-3 0  9996,2 54167  53.2169 127.9872 0001095  94.6673 265.4444 15.08853439 12397,6917.839,95.437,540.462,538.947,0.0
54167.0,STARLINK-5243,PAYLOAD,2023-01-16 16:50:53,15.08857031,0.0001361,53.2173,127.3891,100.1626,259.9519,0.00019575,2.8300000000000003e-05,0.0,0 STARLINK-5243,1 54167U 22141L   23016.70201352  .00002830  00000-0  19575-3 0  9998,2 54167  53.2173 127.3891 0001361 100.1626 259.9519 15.08857031 12409,6917.828,95.436,540.635,538.752,0.0
54167.0,STARLINK-5243,PAYLOAD,2023-01-17 00:47:51,15.08824225,0.0001328,53.2165,125.908,91.7359,268.3785,8.6813e-05,1.093e-05,0.0,0 STARLINK-5243,1 54167U 22141L   23017.03323699  .00001093  00000-0  86813-4 0  9994,2 54167  53.2165 125.9080 0001328  91.7359 268.3785 15.08824225 12458,6917.929,95.439,540.712,538.875,0.0
54167.0,STARLINK-5243,PAYLOAD,2023-01-17 10:20:11,15.08817063,0.0001571,53.2161,124.1204,117.0839,243.0313,-1.06e-05,-4.57e-06,0.0,0 STARLINK-5243,1 54167U 22141L   23017.43068811 -.00000457  00000-0 -10600-4 0  9996,2 54167  53.2161 124.1204 0001571 117.0839 243.0313 15.08817063 12514,6917.95,95.439,540.9019999999999,538.729,0.0
54167.0,STARLINK-5243,PAYLOAD,2023-01-17 13:30:57,15.08817921,0.0001071,53.2161,123.5288,109.2431,250.8677,1.9052e-05,1.5e-07,0.0,0 STARLINK-5243,1 54167U 22141L   23017.56316865  .00000015  00000-0  19052-4 0  9993,2 54167  53.2161 123.5288 0001071 109.2431 250.8677 15.08817921 12540,6917.948,95.439,540.554,539.072,0.0
54167.0,STARLINK-5243,PAYLOAD,2023-01-18 10:10:56,15.08846598,0.0001335,53.2166,119.6614,113.7047,246.4085,0.00013409,1.847e-05,0.0,0 STARLINK-5243,1 54167U 22141L   23018.42426969  .00001847  00000-0  13409-3 0  9999,2 54167  53.2166 119.6614 0001335 113.7047 246.4085 15.08846598 12669,6917.86,95.437,540.649,538.802,0.0
54167.0,STARLINK-5243,PAYLOAD,2023-01-18 13:21:41,15.08863761,0.0001091,53.2181,119.0653,122.5948,237.515,0.00025353,3.752e-05,0.0,0 STARLINK-5243,1 54167U 22141L   23018.55673590  .00003752  00000-0  25353-3 0  9995,2 54167  53.2181 119.0653 0001091 122.5948 237.5150 15.08863761 12698,6917.808000000001,95.436,540.427,538.918,0.0
54167.0,STARLINK-5243,PAYLOAD,2023-01-19 10:01:44,15.08829479,0.000118,53.2164,115.2007,113.8661,246.2455,0.00021938,3.204e-05,0.0,0 STARLINK-5243,1 54167U 22141L   23019.41787947  .00003204  00000-0  21938-3 0  9990,2 54167  53.2164 115.2007 0001180 113.8661 246.2455 15.08829479 12811,6917.9130000000005,95.438,540.594,538.961,0.0
54167.0,STARLINK-5243,PAYLOAD,2023-01-19 13:12:30,15.08842679,9.85e-05,53.2182,114.6038,109.4358,250.6741,0.00021556,3.145e-05,0.0,0 STARLINK-5243,1 54167U 22141L   23019.55035172  .00003145  00000-0  21556-3 0  9991,2 54167  53.2182 114.6038 0000985 109.4358 250.6741 15.08842679 12830,6917.871999999999,95.437,540.419,539.056,0.0
54167.0,STARLINK-5243,PAYLOAD,2023-01-20 11:27:54,15.08853699,0.0001123,53.2185,110.441,104.6135,255.4981,-3.1119e-05,-7.83e-06,0.0,0 STARLINK-5243,1 54167U 22141L   23020.47771148 -.00000783  00000-0 -31119-4 0  9998,2 54167  53.2185 110.4410 0001123 104.6135 255.4981 15.08853699 12985,6917.839,95.437,540.48,538.927,0.0
54167.0,STARLINK-5243,PAYLOAD,2023-01-20 14:38:39,15.08857661,0.0001107,53.2169,109.8481,103.2055,256.9061,4.4636e-05,4.23e-06,0.0,0 STARLINK-5243,1 54167U 22141L   23020.61018399  .00000423  00000-0  44636-4 0  9993,2 54167  53.2169 109.8481 0001107 103.2055 256.9061 15.08857661 12994,6917.826,95.436,540.457,538.9259999999999,0.0
54167.0,STARLINK-5243,PAYLOAD,2023-01-20 22:35:35,15.08848257,0.0001216,53.2178,108.3614,89.6152,270.4979,-6.9698e-05,-1.397e-05,0.0,0 STARLINK-5243,1 54167U 22141L   23020.94138740 -.00001397  00000-0 -69698-4 0  9990,2 54167  53.2178 108.3614 0001216  89.6152 270.4979 15.08848257 13049,6917.855,95.437,540.561,538.879,0.0
54167.0,STARLINK-5243,PAYLOAD,2023-01-21 11:18:42,15.08829674,0.0001527,53.2181,105.9838,78.2779,281.8385,-1.3349e-05,-5e-06,0.0,0 STARLINK-5243,1 54167U 22141L   23021.47132181 -.00000500  00000-0 -13349-4 0  9999,2 54167  53.2181 105.9838 0001527  78.2779 281.8385 15.08829674 13126,6917.911999999999,95.438,540.8330000000001,538.721,0.0
54167.0,STARLINK-5243,PAYLOAD,2023-01-21 14:29:27,15.08845128,0.0001163,53.2175,105.3855,88.0657,272.0468,0.00014397,2.004e-05,0.0,0 STARLINK-5243,1 54167U 22141L   23021.60379261  .00002004  00000-0  14397-3 0  9998,2 54167  53.2175 105.3855 0001163  88.0657 272.0468 15.08845128 13140,6917.865,95.437,540.534,538.925,0.0
54167.0,STARLINK-5243,PAYLOAD,2023-01-22 22:17:10,15.08845664,0.00011,53.2172,99.4402,95.2628,264.8489,2.165e-05,5.7e-07,0.0,0 STARLINK-5243,1 54167U 22141L   23022.92859143  .00000057  00000-0  21650-4 0  9993,2 54167  53.2172  99.4402 0001100  95.2628 264.8489 15.08845664 13346,6917.863,95.437,540.489,538.967,0.0
54167.0,STARLINK-5243,PAYLOAD,2023-01-23 11:00:16,15.08835092,0.0001462,53.2172,97.062,101.761,258.3546,9.3702e-05,1.203e-05,0.0,0 STARLINK-5243,1 54167U 22141L   23023.45851998  .00001203  00000-0  93702-4 0  9993,2 54167  53.2172  97.0620 0001462 101.7610 258.3546 15.08835092 13422,6917.895,95.438,540.7719999999999,538.749,0.0
54167.0,STARLINK-5243,PAYLOAD,2023-01-24 10:51:02,15.08847596,0.0001153,53.2163,92.6008,104.5549,255.5571,0.00013318,1.833e-05,0.0,0 STARLINK-5243,1 54167U 22141L   23024.45211619  .00001833  00000-0  13318-3 0  9997,2 54167  53.2163  92.6008 0001153 104.5549 255.5571 15.08847596 13577,6917.857,95.437,540.52,538.925,0.0
54167.0,STARLINK-5243,PAYLOAD,2023-01-25 04:20:18,15.08831145,0.000111,53.216,89.3307,95.1754,264.9365,0.00016104,2.275e-05,0.0,0 STARLINK-5243,1 54167U 22141L   23025.18076789  .00002275  00000-0  16104-3 0  9992,2 54167  53.2160  89.3307 0001110  95.1754 264.9365 15.08831145 13685,6917.906999999999,95.438,540.54,539.005,0.0
54167.0,STARLINK-5243,PAYLOAD,2023-01-25 10:41:50,15.08833135,0.0001127,53.2164,88.1412,104.8407,255.271,0.00015184,2.129e-05,0.0,0 STARLINK-5243,1 54167U 22141L   23025.44572730  .00002129  00000-0  15184-3 0  9993,2 54167  53.2164  88.1412 0001127 104.8407 255.2710 15.08833135 13738,6917.901,95.438,540.5459999999999,538.987,0.0
54167.0,STARLINK-5243,PAYLOAD,2023-01-26 10:32:37,15.08848689,0.0001169,53.2168,83.6804,103.4214,256.6908,0.00020529,2.982e-05,0.0,0 STARLINK-5243,1 54167U 22141L   23026.43932070  .00002982  00000-0  20529-3 0  9996,2 54167  53.2168  83.6804 0001169 103.4214 256.6908 15.08848689 13873,6917.854,95.437,540.528,538.91,0.0
54167.0,STARLINK-5243,PAYLOAD,2023-01-26 20:04:56,15.08840609,0.0001204,53.2167,81.8966,106.6582,253.4542,2.6299e-05,1.31e-06,0.0,0 STARLINK-5243,1 54167U 22141L   23026.83676335  .00000131  00000-0  26299-4 0  9994,2 54167  53.2167  81.8966 0001204 106.6582 253.4542 15.08840609 13934,6917.879,95.438,540.576,538.911,0.0
54167.0,STARLINK-5243,PAYLOAD,2023-01-27 08:48:02,15.08830366,9.95e-05,53.2179,79.5184,97.8072,262.3034,0.00010472,1.379e-05,0.0,0 STARLINK-5243,1 54167U 22141L   23027.36669126  .00001379  00000-0  10472-3 0  9993,2 54167  53.2179  79.5184 0000995  97.8072 262.3034 15.08830366 14018,6917.91,95.438,540.4630000000001,539.087,0.0
54167.0,STARLINK-5243,PAYLOAD,2023-01-27 11:58:48,15.08836216,0.0001193999999999,53.2181,78.9223,112.9787,247.1331,0.00011316,1.513e-05,0.0,0 STARLINK-5243,1 54167U 22141L   23027.49916720  .00001513  00000-0  11316-3 0  9990,2 54167  53.2181  78.9223 0001194 112.9787 247.1331 15.08836216 14046,6917.892,95.438,540.5830000000001,538.931,0.0
54167.0,STARLINK-5243,PAYLOAD,2023-01-27 19:55:43,15.08839576,0.0001217,53.2183,77.4353,99.9875,260.1255,3.1746e-05,2.17e-06,0.0,0 STARLINK-5243,1 54167U 22141L   23027.83036719  .00000217  00000-0  31746-4 0  9999,2 54167  53.2183  77.4353 0001217  99.9875 260.1255 15.08839576 14080,6917.882,95.438,540.589,538.905,0.0
54167.0,STARLINK-5243,PAYLOAD,2023-01-28 03:52:39,15.08833693,0.0001319,53.218,75.949,112.4997,247.6135,-2.6494e-05,-7.09e-06,0.0,0 STARLINK-5243,1 54167U 22141L   23028.16157338 -.00000709  00000-0 -26494-4 0  9999,2 54167  53.2180  75.9490 0001319 112.4997 247.6135 15.08833693 14138,6917.9,95.438,540.677,538.852,0.0
54167.0,STARLINK-5243,PAYLOAD,2023-01-28 11:49:35,15.08835317,0.00011,53.218,74.4638,95.4624,264.6493,-1.7152e-05,-5.61e-06,0.0,0 STARLINK-5243,1 54167U 22141L   23028.49277281 -.00000561  00000-0 -17152-4 0  9992,2 54167  53.2180  74.4638 0001100  95.4624 264.6493 15.08835317 14198,6917.895,95.438,540.521,538.999,0.0
54167.0,STARLINK-5243,PAYLOAD,2023-01-28 19:46:31,15.08837197,0.0001312,53.2183,72.9768,91.5706,268.5436,4.0144e-05,3.51e-06,0.0,0 STARLINK-5243,1 54167U 22141L   23028.82397143  .00000351  00000-0  40144-4 0  9991,2 54167  53.2183  72.9768 0001312  91.5706 268.5436 15.08837197 14245,6917.889,95.438,540.662,538.846,0.0
54167.0,STARLINK-5243,PAYLOAD,2023-01-29 11:40:21,15.08847733,0.0001139,53.2182,70.0019,103.3566,256.7553,0.00011016,1.466e-05,0.0,0 STARLINK-5243,1 54167U 22141L   23029.48636359  .00001466  00000-0  11016-3 0  9992,2 54167  53.2182  70.0019 0001139 103.3566 256.7553 15.08847733 14331,6917.857,95.437,540.51,538.934,0.0
